NORAD_CAT_ID,OBJECT_NAME,OBJECT_TYPE,EPOCH,MEAN_MOTION,ECCENTRICITY,INCLINATION,RA_OF_ASC_NODE,ARG_OF_PERICENTER,MEAN_ANOMALY,BSTAR,MEAN_MOTION_DOT,MEAN_MOTION_DDOT,TLE_LINE0,TLE_LINE1,TLE_LINE2,SEMIMAJOR_AXIS,PERIOD,APOGEE,PERIGEE,DECAYED
50183.0,STARLINK-3281,PAYLOAD,2024-06-18 10:50:08,15.08839449,0.0001272,53.2163,193.8813,84.6589,275.4548,6.9427e-05,8.17e-06,0.0,0 STARLINK-3281,1 50183U 21125AD  24170.45148913  .00000817  00000-0  69427-4 0  9995,2 50183  53.2163 193.8813 0001272  84.6589 275.4548 15.08839449138529,6917.882,95.438,540.627,538.867,0.0
50183.0,STARLINK-3281,PAYLOAD,2024-06-18 18:47:04,15.08842056,0.0001274,53.2164,192.3946,85.2597,274.854,8.201e-05,1.018e-05,0.0,0 STARLINK-3281,1 50183U 21125AD  24170.78268692  .00001018  00000-0  82010-4 0  9995,2 50183  53.2164 192.3946 0001274  85.2597 274.8540 15.08842056141706,6917.874,95.437,540.62,538.858,0.0
50183.0,STARLINK-3281,PAYLOAD,2024-06-19 10:40:55,15.08842071,0.0001168,53.2158,189.4206,87.4895,272.6231,9.7106e-05,1.258e-05,0.0,0 STARLINK-3281,1 50183U 21125AD  24171.44508666  .00001258  00000-0  97106-4 0  9995,2 50183  53.2158 189.4206 0001168  87.4895 272.6231 15.08842071141803,6917.874,95.437,540.547,538.931,0.0
50183.0,STARLINK-3281,PAYLOAD,2024-06-20 00:59:23,15.08839125,0.0001181,53.2156,186.7441,87.7415,272.3712,5.6565e-05,6.12e-06,0.0,0 STARLINK-3281,1 50183U 21125AD  24172.04124905  .00000612  00000-0  56565-4 0  9999,2 50183  53.2156 186.7441 0001181  87.7415 272.3712 15.08839125138766,6917.883,95.438,540.565,538.931,0.0
50183.0,STARLINK-3281,PAYLOAD,2024-06-20 07:20:56,15.08839616,0.0001177,53.2155,185.5546,88.2899,271.8228,5.6496e-05,6.11e-06,0.0,0 STARLINK-3281,1 50183U 21125AD  24172.30620891  .00000611  00000-0  56496-4 0  9995,2 50183  53.2155 185.5546 0001177  88.2899 271.8228 15.08839616141939,6917.882,95.438,540.561,538.932,0.0
50183.0,STARLINK-3281,PAYLOAD,2024-06-21 04:00:57,15.08840596,0.0001202,53.2157,181.6898,86.8454,273.2676,3.8421e-05,3.24e-06,0.0,0 STARLINK-3281,1 50183U 21125AD  24173.16732858  .00000324  00000-0  38421-4 0  9996,2 50183  53.2157 181.6898 0001202  86.8454 273.2676 15.08840596138936,6917.879,95.438,540.575,538.912,0.0
50183.0,STARLINK-3281,PAYLOAD,2024-06-21 10:22:29,15.08841566,0.0001236,53.216,180.5002,89.7906,270.3227,3.2365e-05,2.27e-06,0.0,0 STARLINK-3281,1 50183U 21125AD  24173.43228763  .00000227  00000-0  32365-4 0  9994,2 50183  53.2160 180.5002 0001236  89.7906 270.3227 15.08841566142108,6917.876,95.437,540.596,538.886,0.0
50183.0,STARLINK-3281,PAYLOAD,2024-06-22 05:27:07,15.08834695,0.0001239,53.2159,176.9317,91.6472,268.4662,2.9567e-05,1.83e-06,0.0,0 STARLINK-3281,1 50183U 21125AD  24174.22717299  .00000183  00000-0  29567-4 0  9990,2 50183  53.2159 176.9317 0001239  91.6472 268.4662 15.08834695139097,6917.897,95.438,540.619,538.904,0.0
50183.0,STARLINK-3281,PAYLOAD,2024-06-22 10:13:17,15.08832916,0.0001236,53.2159,176.04,89.9909,270.1225,1.3919e-05,-6.6e-07,0.0,0 STARLINK-3281,1 50183U 21125AD  24174.42589524 -.00000066  00000-0  13919-4 0  9995,2 50183  53.2159 176.0400 0001236  89.9909 270.1225 15.08832916142254,6917.902,95.438,540.622,538.912,0.0
50183.0,STARLINK-3281,PAYLOAD,2024-06-23 05:17:54,15.08837883,0.0001229,53.2158,172.4718,90.4182,269.6951,3.0383e-05,1.96e-06,0.0,0 STARLINK-3281,1 50183U 21125AD  24175.22077357  .00000196  00000-0  30383-4 0  9997,2 50183  53.2158 172.4718 0001229  90.4182 269.6951 15.08837883142377,6917.887,95.438,540.602,538.902,0.0
50183.0,STARLINK-3281,PAYLOAD,2024-06-24 03:33:18,15.08836146,0.0001224,53.2155,168.3094,84.0797,276.0334,7.9467e-05,9.77e-06,0.0,0 STARLINK-3281,1 50183U 21125AD  24176.14813489  .00000977  00000-0  79467-4 0  9996,2 50183  53.2155 168.3094 0001224  84.0797 276.0334 15.08836146139386,6917.892,95.438,540.604,538.91,0.0
50183.0,STARLINK-3281,PAYLOAD,2024-06-25 04:59:29,15.08833912,0.0001273,53.2156,163.5494,87.1894,272.9244,0.00010967,1.458e-05,0.0,0 STARLINK-3281,1 50183U 21125AD  24177.20797658  .00001458  00000-0  10967-3 0  9997,2 50183  53.2156 163.5494 0001273  87.1894 272.9244 15.08833912139545,6917.899,95.438,540.645,538.883,0.0
50183.0,STARLINK-3281,PAYLOAD,2024-06-25 06:34:52,15.08837887,0.0001308,53.2158,163.253,92.1058,268.0084,3.6132e-05,2.87e-06,0.0,0 STARLINK-3281,1 50183U 21125AD  24177.27421629  .00000287  00000-0  36132-4 0  9998,2 50183  53.2158 163.2530 0001308  92.1058 268.0084 15.08837887142684,6917.887,95.438,540.657,538.847,0.0
50183.0,STARLINK-3281,PAYLOAD,2024-06-26 06:25:38,15.08843625,0.0001344,53.2159,158.7918,90.8826,269.2321,6.4956e-05,7.46e-06,0.0,0 STARLINK-3281,1 50183U 21125AD  24178.26781194  .00000746  00000-0  64956-4 0  9999,2 50183  53.2159 158.7918 0001344  90.8826 269.2321 15.08843625139705,6917.869,95.437,540.664,538.805,0.0
50183.0,STARLINK-3281,PAYLOAD,2024-06-27 04:41:03,15.08839556,0.0001324,53.2158,154.6263,94.3527,265.7616,5.305e-05,5.56e-06,0.0,0 STARLINK-3281,1 50183U 21125AD  24179.19517475  .00000556  00000-0  53050-4 0  9993,2 50183  53.2158 154.6263 0001324  94.3527 265.7616 15.08839556139848,6917.882,95.438,540.663,538.831,0.0
50183.0,STARLINK-3281,PAYLOAD,2024-06-27 15:48:44,15.08843997,0.0001306,53.2159,152.5457,101.7097,258.4042,7.7843e-05,9.51e-06,0.0,0 STARLINK-3281,1 50183U 21125AD  24179.65885063  .00000951  00000-0  77843-4 0  9990,2 50183  53.2159 152.5457 0001306 101.7097 258.4042 15.08843997143049,6917.868,95.437,540.637,538.83,0.0
50183.0,STARLINK-3281,PAYLOAD,2024-06-28 04:31:50,15.08839952,0.0001317,53.2162,150.1679,95.1143,264.9999,-1.2421e-05,-4.86e-06,0.0,0 STARLINK-3281,1 50183U 21125AD  24180.18877712 -.00000486  00000-0 -12421-4 0  9998,2 50183  53.2162 150.1679 0001317  95.1143 264.9999 15.08839952143121,6917.881,95.438,540.657,538.834,0.0
50183.0,STARLINK-3281,PAYLOAD,2024-06-29 04:22:36,15.08845444,0.0001146,53.2144,145.71,89.3087,270.8037,0.00010211,1.338e-05,0.0,0 STARLINK-3281,1 50183U 21125AD  24181.18237086  .00001338  00000-0  10211-3 0  9992,2 50183  53.2144 145.7100 0001146  89.3087 270.8037 15.08845444140143,6917.864,95.437,540.522,538.936,0.0
50183.0,STARLINK-3281,PAYLOAD,2024-06-29 07:33:23,15.08836679,0.0001489,53.2145,145.1148,129.8137,230.2987,0.00027879,4.151e-05,0.0,0 STARLINK-3281,1 50183U 21125AD  24181.31485056  .00004151  00000-0  27879-3 0  9993,2 50183  53.2145 145.1148 0001489 129.8137 230.2987 15.08836679143299,6917.891,95.438,540.786,538.725,0.0
50183.0,STARLINK-3281,PAYLOAD,2024-06-30 04:13:24,15.08830871,0.0001242,53.2155,141.2438,91.3491,268.7643,1.3694e-05,-7e-07,0.0,0 STARLINK-3281,1 50183U 21125AD  24182.17598326 -.00000070  00000-0  13694-4 0  9991,2 50183  53.2155 141.2438 0001242  91.3491 268.7643 15.08830871140292,6917.908,95.438,540.632,538.914,0.0
50183.0,STARLINK-3281,PAYLOAD,2024-06-30 13:45:43,15.08837807,0.0001228,53.2154,139.4651,95.6464,264.4668,3.3647e-05,2.48e-06,0.0,0 STARLINK-3281,1 50183U 21125AD  24182.57341982  .00000248  00000-0  33647-4 0  9995,2 50183  53.2154 139.4651 0001228  95.6464 264.4668 15.08837807143488,6917.887,95.438,540.602,538.903,0.0
50183.0,STARLINK-3281,PAYLOAD,2024-07-01 13:36:29,15.08853093,0.0001418,53.2174,135.0052,96.1515,263.9639,8.8928e-05,1.128e-05,0.0,0 STARLINK-3281,1 50183U 21125AD  24183.56700917  .00001128  00000-0  88928-4 0  9992,2 50183  53.2174 135.0052 0001418  96.1515 263.9639 15.08853093143635,6917.84,95.437,540.686,538.724,0.0
50183.0,STARLINK-3281,PAYLOAD,2024-07-01 19:58:02,15.08841819,0.0002027,53.2166,133.8174,92.5136,267.6089,0.0001876,2.699e-05,0.0,0 STARLINK-3281,1 50183U 21125AD  24183.83197773  .00002699  00000-0  18760-3 0  9992,2 50183  53.2166 133.8174 0002027  92.5136 267.6089 15.08841819140543,6917.875,95.437,541.142,538.338,0.0
50183.0,STARLINK-3281,PAYLOAD,2024-07-02 03:54:59,15.08828878,0.0001285,53.2163,132.3298,101.4214,258.6922,7.8804e-05,9.66e-06,0.0,0 STARLINK-3281,1 50183U 21125AD  24184.16319007  .00000966  00000-0  78804-4 0  9996,2 50183  53.2163 132.3298 0001285 101.4214 258.6922 15.08828878140594,6917.914,95.438,540.668,538.89,0.0
50183.0,STARLINK-3281,PAYLOAD,2024-07-02 13:27:17,15.08841672,0.0001435,53.2176,130.5447,90.5892,269.5264,0.00014836,2.074e-05,0.0,0 STARLINK-3281,1 50183U 21125AD  24184.56062195  .00002074  00000-0  14836-3 0  9999,2 50183  53.2176 130.5447 0001435  90.5892 269.5264 15.08841672140655,6917.875,95.437,540.733,538.748,0.0
50183.0,STARLINK-3281,PAYLOAD,2024-07-03 13:18:04,15.08849318,0.0001363,53.2169,126.0836,89.6619,270.4529,8.1666e-05,1.012e-05,0.0,0 STARLINK-3281,1 50183U 21125AD  24185.55421963  .00001012  00000-0  81666-4 0  9998,2 50183  53.2169 126.0836 0001363  89.6619 270.4529 15.08849318143939,6917.852,95.437,540.66,538.774,0.0
50183.0,STARLINK-3281,PAYLOAD,2024-07-04 03:36:33,15.08842055,0.0001242,53.2156,123.4039,82.4891,277.6242,0.00011462,1.537e-05,0.0,0 STARLINK-3281,1 50183U 21125AD  24186.15038441  .00001537  00000-0  11462-3 0  9998,2 50183  53.2156 123.4039 0001242  82.4891 277.6242 15.08842055140894,6917.874,95.437,540.598,538.88,0.0
50183.0,STARLINK-3281,PAYLOAD,2024-07-04 13:08:51,15.0885336,0.0001272,53.2147,121.6201,86.11,274.0038,0.00022114,3.235e-05,0.0,0 STARLINK-3281,1 50183U 21125AD  24186.54781649  .00003235  00000-0  22114-3 0  9999,2 50183  53.2147 121.6201 0001272  86.1100 274.0038 15.08853360140954,6917.84,95.437,540.585,538.825,0.0
50183.0,STARLINK-3281,PAYLOAD,2024-07-04 19:30:24,15.08849038,0.000209,53.2128,120.4353,78.2666,281.8561,0.00029941,4.481e-05,0.0,0 STARLINK-3281,1 50183U 21125AD  24186.81278189  .00004481  00000-0  29941-3 0  9998,2 50183  53.2128 120.4353 0002090  78.2666 281.8561 15.08849038140994,6917.853,95.437,541.164,538.272,0.0
50183.0,STARLINK-3281,PAYLOAD,2024-07-05 05:02:43,15.08843896,0.0001592,53.2147,118.6486,85.8644,274.253,8.9314e-05,1.134e-05,0.0,0 STARLINK-3281,1 50183U 21125AD  24187.21022303  .00001134  00000-0  89314-4 0  9991,2 50183  53.2147 118.6486 0001592  85.8644 274.2530 15.08843896141053,6917.868,95.437,540.835,538.632,0.0
